UNKNOWN                 
1 85237U          26084.59589313  .00003420  00000+0  69292-3 0  9997
2 85237  65.5328 304.6752 0516473 340.8747  17.3543 14.02416885622767
UNKNOWN                 
1 85238U          26088.04956509  .00000024  00000+0  55347-4 0  9991
2 85238  99.0699  19.2338 0062365 273.4062 102.1890 13.88364155625594
UNKNOWN                 
1 85246U          26089.93706656  .00002933  00000+0  10503-2 0  9999
2 85246  97.9914  88.3270 0221824 345.1789  14.2957 14.21886595638442
UNKNOWN                 
1 85373U          26089.37522315  .00002966  00000+0  20110-2 0  9997
2 85373 100.4276 145.3913 0050587 315.4133 104.9910 14.00538589627191
UNKNOWN                 
1 85423U          26080.09226852 -.00000119  00000+0  00000+0 0  9992
2 85423   0.2500  63.9100 0237500 184.1600 179.3500  1.04170165    18
UNKNOWN                 
1 85448U          26072.61808446 -.00000384  00000+0  00000+0 0  9997
2 85448  41.4606 155.5047 0007289 313.6966 141.3444 15.68404032    03
UNKNOWN                 
1 87014U          26090.41990125  .00002844  00000+0  43358-2 0  9990
2 87014 100.4807  65.7372 0052431 341.0701 170.8054 13.52458407605604
UNKNOWN                 
1 87029U          26086.81119665  .00001124  00000+0  70759-3 0  9993
2 87029  98.7455 123.3128 0080255 315.8016  43.6758 14.04747797607758
UNKNOWN                 
1 87042U          26087.83414604  .00000966  00000+0  59516-3 0  9993
2 87042  98.6991 132.1755 0044488 154.8644 205.4704 14.07306101568889
UNKNOWN                 
1 87051U          26090.00067930  .00003606  00000+0  12709-2 0  9998
2 87051  65.7321 356.1734 0708447  91.6501 276.5757 13.46361079603152
UNKNOWN                 
1 87054U          26088.98992438  .00002170  00000+0  12237-2 0  9996
2 87054 100.0873 346.5863 0014052  51.7294 308.5135 14.11554712631455
